NORAD_CAT_ID,OBJECT_NAME,OBJECT_TYPE,EPOCH,MEAN_MOTION,ECCENTRICITY,INCLINATION,RA_OF_ASC_NODE,ARG_OF_PERICENTER,MEAN_ANOMALY,BSTAR,MEAN_MOTION_DOT,MEAN_MOTION_DDOT,TLE_LINE0,TLE_LINE1,TLE_LINE2,SEMIMAJOR_AXIS,PERIOD,APOGEE,PERIGEE,DECAYED
52584.0,STARLINK-3922,PAYLOAD,2023-06-07 18:08:51,15.08850157,8.14e-05,53.2166,314.9318,98.7574,261.351,-8.74e-05,-1.679e-05,0.0,0 STARLINK-3922,1 52584U 22051BA  23158.75615342 -.00001679  00000-0 -87400-4 0  9994,2 52584  53.2166 314.9318 0000814  98.7574 261.3510 15.08850157 59799,6917.849,95.437,540.277,539.151,0.0
52584.0,STARLINK-3922,PAYLOAD,2023-06-07 19:44:15,15.08847278,9.21e-05,53.2164,314.6333,92.0279,268.0819,0.00018123,2.598e-05,0.0,0 STARLINK-3922,1 52584U 22051BA  23158.82239601  .00002598  00000-0  18123-3 0  9996,2 52584  53.2164 314.6333 0000921  92.0279 268.0819 15.08847278 59739,6917.858,95.437,540.36,539.086,0.0
52584.0,STARLINK-3922,PAYLOAD,2023-06-07 22:55:01,15.08849964,8.86e-05,53.2163,314.0382,92.8232,267.2861,0.00021829,3.189e-05,0.0,0 STARLINK-3922,1 52584U 22051BA  23158.95487433  .00003189  00000-0  21829-3 0  9992,2 52584  53.2163 314.0382 0000886  92.8232 267.2861 15.08849964 59825,6917.85,95.437,540.328,539.102,0.0
52584.0,STARLINK-3922,PAYLOAD,2023-06-08 10:02:44,15.08831678,6.68e-05,53.2179,311.9554,90.265,269.8418,3.6034e-05,2.86e-06,0.0,0 STARLINK-3922,1 52584U 22051BA  23159.41856520  .00000286  00000-0  36034-4 0  9991,2 52584  53.2179 311.9554 0000668  90.2650 269.8418 15.08831678 59899,6917.906,95.438,540.233,539.309,0.0
52584.0,STARLINK-3922,PAYLOAD,2023-06-08 16:24:16,15.0884336,7.72e-05,53.2156,310.7679,78.8121,281.2958,0.00016154,2.284e-05,0.0,0 STARLINK-3922,1 52584U 22051BA  23159.68351988  .00002284  00000-0  16154-3 0  9998,2 52584  53.2156 310.7679 0000772  78.8121 281.2958 15.08843360 59933,6917.87,95.437,540.269,539.201,0.0
52584.0,STARLINK-3922,PAYLOAD,2023-06-09 09:53:30,15.08840024,7.06e-05,53.2157,307.4981,59.6322,300.474,0.0002243,3.284e-05,0.0,0 STARLINK-3922,1 52584U 22051BA  23160.41216346  .00003284  00000-0  22430-3 0  9994,2 52584  53.2157 307.4981 0000706  59.6322 300.4740 15.08840024 60041,6917.88,95.438,540.234,539.257,0.0
52584.0,STARLINK-3922,PAYLOAD,2023-06-09 16:15:03,15.08842753,9.48e-05,53.2154,306.3088,57.5846,302.5237,0.00018791,2.704e-05,0.0,0 STARLINK-3922,1 52584U 22051BA  23160.67712300  .00002704  00000-0  18791-3 0  9994,2 52584  53.2154 306.3088 0000948  57.5846 302.5237 15.08842753 60012,6917.872,95.437,540.393,539.081,0.0
52584.0,STARLINK-3922,PAYLOAD,2023-06-10 08:08:54,15.08840223,0.0001077,53.2163,303.3352,53.3192,306.7899,0.00015077,2.113e-05,0.0,0 STARLINK-3922,1 52584U 22051BA  23161.33952461  .00002113  00000-0  15077-3 0  9990,2 52584  53.2163 303.3352 0001077  53.3192 306.7899 15.08840223 60183,6917.88,95.438,540.49,539.0,0.0
52584.0,STARLINK-3922,PAYLOAD,2023-06-10 11:19:41,15.08842172,0.0001025,53.2164,302.7401,67.2835,292.8265,0.00015208,2.134e-05,0.0,0 STARLINK-3922,1 52584U 22051BA  23161.47200372  .00002134  00000-0  15208-3 0  9991,2 52584  53.2164 302.7401 0001025  67.2835 292.8265 15.08842172 60135,6917.874,95.437,540.448,539.03,0.0
52584.0,STARLINK-3922,PAYLOAD,2023-06-10 14:30:27,15.08844118,9.63e-05,53.2165,302.1454,66.0962,294.0131,0.00017454,2.491e-05,0.0,0 STARLINK-3922,1 52584U 22051BA  23161.60448254  .00002491  00000-0  17454-3 0  9990,2 52584  53.2165 302.1454 0000963  66.0962 294.0131 15.08844118 60156,6917.868,95.437,540.399,539.067,0.0
52584.0,STARLINK-3922,PAYLOAD,2023-06-10 16:05:50,15.08846216,9.21e-05,53.2163,301.8474,80.3504,279.7592,0.00019067,2.749e-05,0.0,0 STARLINK-3922,1 52584U 22051BA  23161.67072075  .00002749  00000-0  19067-3 0  9999,2 52584  53.2163 301.8474 0000921  80.3504 279.7592 15.08846216 60238,6917.861,95.437,540.364,539.089,0.0
52584.0,STARLINK-3922,PAYLOAD,2023-06-11 12:45:51,15.08840558,9.21e-05,53.2161,297.9801,95.4709,264.6388,6.9563e-05,8.2e-06,0.0,0 STARLINK-3922,1 52584U 22051BA  23162.53184253  .00000820  00000-0  69563-4 0  9992,2 52584  53.2161 297.9801 0000921  95.4709 264.6388 15.08840558 60294,6917.879,95.438,540.381,539.107,0.0
52584.0,STARLINK-3922,PAYLOAD,2023-06-11 15:56:37,15.08843531,9.4e-05,53.2154,297.3872,75.6592,284.4504,0.00010842,1.438e-05,0.0,0 STARLINK-3922,1 52584U 22051BA  23162.66432132  .00001438  00000-0  10842-3 0  9999,2 52584  53.2154 297.3872 0000940  75.6592 284.4504 15.08843531 60383,6917.87,95.437,540.385,539.084,0.0
52584.0,STARLINK-3922,PAYLOAD,2023-06-12 01:28:55,15.08845963,8.42e-05,53.2162,295.6015,88.6893,271.4195,0.00013769,1.905e-05,0.0,0 STARLINK-3922,1 52584U 22051BA  23163.06175852  .00001905  00000-0  13769-3 0  9997,2 52584  53.2162 295.6015 0000842  88.6893 271.4195 15.08845963 60441,6917.862,95.437,540.31,539.145,0.0
52584.0,STARLINK-3922,PAYLOAD,2023-06-12 07:50:28,15.08840349,0.000106,53.2166,294.4155,83.3616,276.7496,2.9002e-05,1.74e-06,0.0,0 STARLINK-3922,1 52584U 22051BA  23163.32671826  .00000174  00000-0  29002-4 0  9993,2 52584  53.2166 294.4155 0001060  83.3616 276.7496 15.08840349 60484,6917.879,95.438,540.478,539.011,0.0
52584.0,STARLINK-3922,PAYLOAD,2023-06-12 15:47:24,15.08834753,9.72e-05,53.215,292.9277,65.9346,294.1748,-4.3887e-05,-9.86e-06,0.0,0 STARLINK-3922,1 52584U 22051BA  23163.65792505 -.00000986  00000-0 -43887-4 0  9997,2 52584  53.2150 292.9277 0000972  65.9346 294.1748 15.08834753 60534,6917.896,95.438,540.434,539.089,0.0
52584.0,STARLINK-3922,PAYLOAD,2023-06-13 01:19:43,15.0883527,0.0001043,53.2173,291.1437,108.8151,251.2955,5.2341e-05,5.45e-06,0.0,0 STARLINK-3922,1 52584U 22051BA  23164.05536804  .00000545  00000-0  52341-4 0  9994,2 52584  53.2173 291.1437 0001043 108.8151 251.2955 15.08835270 60594,6917.895,95.438,540.481,539.038,0.0
52584.0,STARLINK-3922,PAYLOAD,2023-06-13 10:52:02,15.08835623,9.4e-05,53.2164,289.3584,95.492,264.618,-1.9951e-06,-3.19e-06,0.0,0 STARLINK-3922,1 52584U 22051BA  23164.45281065 -.00000319  00000-0 -19951-5 0  9996,2 52584  53.2164 289.3584 0000940  95.4920 264.6180 15.08835623 60653,6917.894,95.438,540.409,539.108,0.0
52584.0,STARLINK-3922,PAYLOAD,2023-06-13 18:48:59,15.08797857,0.0001258,53.2162,287.8716,94.6791,265.4345,0.00078401,0.00012197,0.0,0 STARLINK-3922,1 52584U 22051BA  23164.78401835  .00012197  00000-0  78401-3 0  9999,2 52584  53.2162 287.8716 0001258  94.6791 265.4345 15.08797857 60705,6918.009,95.44,540.744,539.004,0.0
52584.0,STARLINK-3922,PAYLOAD,2023-06-14 01:10:30,15.08837204,9.59e-05,53.2167,286.6821,91.0874,269.0228,0.00018424,2.645e-05,0.0,0 STARLINK-3922,1 52584U 22051BA  23165.04896696  .00002645  00000-0  18424-3 0  9998,2 52584  53.2167 286.6821 0000959  91.0874 269.0228 15.08837204 60749,6917.889,95.438,540.417,539.091,0.0
52584.0,STARLINK-3922,PAYLOAD,2023-06-14 09:07:26,15.08837271,9.6e-05,53.2169,285.1949,89.5195,270.5907,0.00018501,2.658e-05,0.0,0 STARLINK-3922,1 52584U 22051BA  23165.38016659  .00002658  00000-0  18501-3 0  9998,2 52584  53.2169 285.1949 0000960  89.5195 270.5907 15.08837271 60796,6917.889,95.438,540.418,539.09,0.0
52584.0,STARLINK-3922,PAYLOAD,2023-06-14 10:42:50,15.08831126,0.0001038,53.2167,284.8969,85.3053,274.8058,0.00015133,2.121e-05,0.0,0 STARLINK-3922,1 52584U 22051BA  23165.44641225  .00002121  00000-0  15133-3 0  9991,2 52584  53.2167 284.8969 0001038  85.3053 274.8058 15.08831126 60737,6917.908,95.438,540.491,539.054,0.0
52584.0,STARLINK-3922,PAYLOAD,2023-06-14 17:04:21,15.08843499,0.0001039,53.217,283.7069,79.9209,280.19,0.00013675,1.889e-05,0.0,0 STARLINK-3922,1 52584U 22051BA  23165.71136504  .00001889  00000-0  13675-3 0  9999,2 52584  53.2170 283.7069 0001039  79.9209 280.1900 15.08843499 60847,6917.87,95.437,540.453,539.016,0.0
52584.0,STARLINK-3922,PAYLOAD,2023-06-15 01:01:18,15.08837171,0.0001181,53.2158,282.2205,84.0988,276.0139,6.6225e-05,7.66e-06,0.0,0 STARLINK-3922,1 52584U 22051BA  23166.04257122  .00000766  00000-0  66225-4 0  9999,2 52584  53.2158 282.2205 0001181  84.0988 276.0139 15.08837171 60891,6917.889,95.438,540.571,538.937,0.0
52584.0,STARLINK-3922,PAYLOAD,2023-06-15 07:22:50,15.08836815,0.0001449,53.2154,281.0314,83.937,276.1787,0.00010353,1.36e-05,0.0,0 STARLINK-3922,1 52584U 22051BA  23166.30753226  .00001360  00000-0  10353-3 0  9995,2 52584  53.2154 281.0314 0001449  83.9370 276.1787 15.08836815 60934,6917.89,95.438,540.758,538.753,0.0
52584.0,STARLINK-3922,PAYLOAD,2023-06-15 13:44:23,15.08840744,0.0001041,53.2165,279.8417,90.7926,269.3185,5.8169e-05,6.38e-06,0.0,0 STARLINK-3922,1 52584U 22051BA  23166.57249053  .00000638  00000-0  58169-4 0  9997,2 52584  53.2165 279.8417 0001041  90.7926 269.3185 15.08840744 60905,6917.878,95.438,540.463,539.023,0.0
52584.0,STARLINK-3922,PAYLOAD,2023-06-15 16:55:09,15.08844971,0.0001016,53.2167,279.2464,93.579,266.5318,9.0459e-05,1.152e-05,0.0,0 STARLINK-3922,1 52584U 22051BA  23166.70496677  .00001152  00000-0  90459-4 0  9998,2 52584  53.2167 279.2464 0001016  93.5790 266.5318 15.08844971 60997,6917.865,95.437,540.433,539.027,0.0
52584.0,STARLINK-3922,PAYLOAD,2023-06-16 00:52:04,15.08846053,0.000103,53.2168,277.7591,86.908,273.203,9.2225e-05,1.181e-05,0.0,0 STARLINK-3922,1 52584U 22051BA  23167.03616529  .00001181  00000-0  92225-4 0  9990,2 52584  53.2168 277.7591 0001030  86.9080 273.2030 15.08846053 61042,6917.862,95.437,540.439,539.014,0.0
52584.0,STARLINK-3922,PAYLOAD,2023-06-16 07:13:37,15.08847127,0.0001103,53.2166,276.5699,87.5006,272.6113,0.00012469,1.698e-05,0.0,0 STARLINK-3922,1 52584U 22051BA  23167.30112359  .00001698  00000-0  12469-3 0  9996,2 52584  53.2166 276.5699 0001103  87.5006 272.6113 15.08847127 61084,6917.859,95.437,540.487,538.961,0.0
52584.0,STARLINK-3922,PAYLOAD,2023-06-16 13:35:09,15.08859152,0.0001039,53.2161,275.3804,87.6085,272.5026,0.00034966,5.284e-05,0.0,0 STARLINK-3922,1 52584U 22051BA  23167.56607781  .00005284  00000-0  34966-3 0  9993,2 52584  53.2161 275.3804 0001039  87.6085 272.5026 15.08859152 61050,6917.822,95.436,540.406,538.968,0.0
